{
  "type": "FeatureCollection",
  "features": [
    {
      "type": "Feature",
      "properties": {
        "norad_id": 66562,
        "name": "STARLINK-35579",
        "group": "last-30-days",
        "lat": 14.845686859594991,
        "lon": 97.48715172535526,
        "alt_km": 413.4164704884215,
        "timestamp": "2025-12-19T14:48:34.963406+00:00",
        "meta_object_name": "STARLINK-35579",
        "meta_object_id": "2025-268F",
        "meta_epoch": "2025-12-19T06:59:07.650528",
        "meta_mean_motion": 15.50615336,
        "meta_eccentricity": 0.00026676,
        "meta_inclination": 43.0018,
        "meta_ra_of_asc_node": 82.8697,
        "meta_arg_of_pericenter": 256.9394,
        "meta_mean_anomaly": 103.1168,
        "meta_ephemeris_type": 0,
        "meta_classification_type": "U",
        "meta_norad_cat_id": 66562,
        "meta_element_set_no": 999,
        "meta_rev_at_epoch": 564,
        "meta_bstar": 0.0012581944,
        "meta_mean_motion_dot": 0.00074275,
        "meta_mean_motion_ddot": 0,
        "tle_line1": "1 66562U 25268F   25353.29106077  .00074275  00000+0  12582-2 0  9992",
        "tle_line2": "2 66562  43.0018  82.8697 0002667 256.9394 103.1168 15.50615336  5642"
      },
      "geometry": {
        "type": "Point",
        "coordinates": [
          97.48715172535526,
          14.845686859594991
        ]
      }
    },
    {
      "type": "Feature",
      "properties": {
        "norad_id": 66563,
        "name": "STARLINK-35437",
        "group": "last-30-days",
        "lat": 17.333647501908654,
        "lon": 100.52045822700678,
        "alt_km": 411.73782049450165,
        "timestamp": "2025-12-19T14:48:34.963416+00:00",
        "meta_object_name": "STARLINK-35437",
        "meta_object_id": "2025-268G",
        "meta_epoch": "2025-12-19T06:58:08.497632",
        "meta_mean_motion": 15.50620192,
        "meta_eccentricity": 0.00014679,
        "meta_inclination": 42.9989,
        "meta_ra_of_asc_node": 82.8626,
        "meta_arg_of_pericenter": 312.0667,
        "meta_mean_anomaly": 48.0068,
        "meta_ephemeris_type": 0,
        "meta_classification_type": "U",
        "meta_norad_cat_id": 66563,
        "meta_element_set_no": 999,
        "meta_rev_at_epoch": 564,
        "meta_bstar": 0.0011303807,
        "meta_mean_motion_dot": 0.00066637,
        "meta_mean_motion_ddot": 0,
        "tle_line1": "1 66563U 25268G   25353.29037613  .00066637  00000+0  11304-2 0  9996",
        "tle_line2": "2 66563  42.9989  82.8626 0001467 312.0667  48.0068 15.50620192  5646"
      },
      "geometry": {
        "type": "Point",
        "coordinates": [
          100.52045822700678,
          17.333647501908654
        ]
      }
    },
    {
      "type": "Feature",
      "properties": {
        "norad_id": 66564,
        "name": "STARLINK-35358",
        "group": "last-30-days",
        "lat": 18.546904289801592,
        "lon": 102.05167734389646,
        "alt_km": 410.7240512805938,
        "timestamp": "2025-12-19T14:48:34.963426+00:00",
        "meta_object_name": "STARLINK-35358",
        "meta_object_id": "2025-268H",
        "meta_epoch": "2025-12-19T06:57:39.121632",
        "meta_mean_motion": 15.50615686,
        "meta_eccentricity": 0.00017441,
        "meta_inclination": 43.0001,
        "meta_ra_of_asc_node": 82.8624,
        "meta_arg_of_pericenter": 17.0019,
        "meta_mean_anomaly": 343.0899,
        "meta_ephemeris_type": 0,
        "meta_classification_type": "U",
        "meta_norad_cat_id": 66564,
        "meta_element_set_no": 999,
        "meta_rev_at_epoch": 564,
        "meta_bstar": 0.00093905457,
        "meta_mean_motion_dot": 0.0005521,
        "meta_mean_motion_ddot": 0,
        "tle_line1": "1 66564U 25268H   25353.29003613  .00055210  00000+0  93905-3 0  9993",
        "tle_line2": "2 66564  43.0001  82.8624 0001744  17.0019 343.0899 15.50615686  5645"
      },
      "geometry": {
        "type": "Point",
        "coordinates": [
          102.05167734389646,
          18.546904289801592
        ]
      }
    },
    {
      "type": "Feature",
      "properties": {
        "norad_id": 66565,
        "name": "STARLINK-35893",
        "group": "last-30-days",
        "lat": 20.044206914718533,
        "lon": 103.98605298984212,
        "alt_km": 411.76683529848015,
        "timestamp": "2025-12-19T14:48:34.963436+00:00",
        "meta_object_name": "STARLINK-35893",
        "meta_object_id": "2025-268J",
        "meta_epoch": "2025-12-18T13:56:48.664320",
        "meta_mean_motion": 15.50624497,
        "meta_eccentricity": 0.0001387,
        "meta_inclination": 43.0015,
        "meta_ra_of_asc_node": 86.9997,
        "meta_arg_of_pericenter": 260.7796,
        "meta_mean_anomaly": 99.2908,
        "meta_ephemeris_type": 0,
        "meta_classification_type": "U",
        "meta_norad_cat_id": 66565,
        "meta_element_set_no": 999,
        "meta_rev_at_epoch": 553,
        "meta_bstar": 0.0012916172,
        "meta_mean_motion_dot": 0.00076297,
        "meta_mean_motion_ddot": 0,
        "tle_line1": "1 66565U 25268J   25352.58111880  .00076297  00000+0  12916-2 0  9991",
        "tle_line2": "2 66565  43.0015  86.9997 0001387 260.7796  99.2908 15.50624497  5530"
      },
      "geometry": {
        "type": "Point",
        "coordinates": [
          103.98605298984212,
          20.044206914718533
        ]
      }
    },
    {
      "type": "Feature",
      "properties": {
        "norad_id": 66566,
        "name": "STARLINK-35871",
        "group": "last-30-days",
        "lat": 20.983293824153805,
        "lon": 105.24208021089032,
        "alt_km": 412.0348019888297,
        "timestamp": "2025-12-19T14:48:34.963446+00:00",
        "meta_object_name": "STARLINK-35871",
        "meta_object_id": "2025-268K",
        "meta_epoch": "2025-12-19T06:56:39.236928",
        "meta_mean_motion": 15.50620098,
        "meta_eccentricity": 0.00012065,
        "meta_inclination": 42.9983,
        "meta_ra_of_asc_node": 82.8541,
        "meta_arg_of_pericenter": 254.9508,
        "meta_mean_anomaly": 105.1219,
        "meta_ephemeris_type": 0,
        "meta_classification_type": "U",
        "meta_norad_cat_id": 66566,
        "meta_element_set_no": 999,
        "meta_rev_at_epoch": 564,
        "meta_bstar": 0.00117749,
        "meta_mean_motion_dot": 0.00069453,
        "meta_mean_motion_ddot": 0,
        "tle_line1": "1 66566U 25268K   25353.28934302  .00069453  00000+0  11775-2 0  9990",
        "tle_line2": "2 66566  42.9983  82.8541 0001206 254.9508 105.1219 15.50620098  5646"
      },
      "geometry": {
        "type": "Point",
        "coordinates": [
          105.24208021089032,
          20.983293824153805
        ]
      }
    },
    {
      "type": "Feature",
      "properties": {
        "norad_id": 66567,
        "name": "STARLINK-35825",
        "group": "last-30-days",
        "lat": 22.15177715392048,
        "lon": 106.83646892989034,
        "alt_km": 411.87517870108877,
        "timestamp": "2025-12-19T14:48:34.963456+00:00",
        "meta_object_name": "STARLINK-35825",
        "meta_object_id": "2025-268L",
        "meta_epoch": "2025-12-19T06:56:09.593088",
        "meta_mean_motion": 15.50602196,
        "meta_eccentricity": 0.00014798,
        "meta_inclination": 43.0012,
        "meta_ra_of_asc_node": 82.8518,
        "meta_arg_of_pericenter": 271.0475,
        "meta_mean_anomaly": 89.0216,
        "meta_ephemeris_type": 0,
        "meta_classification_type": "U",
        "meta_norad_cat_id": 66567,
        "meta_element_set_no": 999,
        "meta_rev_at_epoch": 564,
        "meta_bstar": 0.00082569569,
        "meta_mean_motion_dot": 0.00048438,
        "meta_mean_motion_ddot": 0,
        "tle_line1": "1 66567U 25268L   25353.28899992  .00048438  00000+0  82570-3 0  9998",
        "tle_line2": "2 66567  43.0012  82.8518 0001479 271.0475  89.0216 15.50602196  5647"
      },
      "geometry": {
        "type": "Point",
        "coordinates": [
          106.83646892989034,
          22.15177715392048
        ]
      }
    },
    {
      "type": "Feature",
      "properties": {
        "norad_id": 66568,
        "name": "STARLINK-35803",
        "group": "last-30-days",
        "lat": 23.29209436779944,
        "lon": 108.44183334790988,
        "alt_km": 411.4718177071809,
        "timestamp": "2025-12-19T14:48:34.963468+00:00",
        "meta_object_name": "STARLINK-35803",
        "meta_object_id": "2025-268M",
        "meta_epoch": "2025-12-19T06:55:41.215008",
        "meta_mean_motion": 15.50627845,
        "meta_eccentricity": 0.00011994,
        "meta_inclination": 43.0014,
        "meta_ra_of_asc_node": 82.8492,
        "meta_arg_of_pericenter": 275.3703,
        "meta_mean_anomaly": 84.702,
        "meta_ephemeris_type": 0,
        "meta_classification_type": "U",
        "meta_norad_cat_id": 66568,
        "meta_element_set_no": 999,
        "meta_rev_at_epoch": 564,
        "meta_bstar": 0.00099239807,
        "meta_mean_motion_dot": 0.00058415,
        "meta_mean_motion_ddot": 0,
        "tle_line1": "1 66568U 25268M   25353.28867147  .00058415  00000+0  99240-3 0  9994",
        "tle_line2": "2 66568  43.0014  82.8492 0001199 275.3703  84.7020 15.50627845  5644"
      },
      "geometry": {
        "type": "Point",
        "coordinates": [
          108.44183334790988,
          23.29209436779944
        ]
      }
    }
  ]
}